[{"OBJECT_NAME":"IRNSS-1B","OBJECT_ID":"2014-017A","EPOCH":"2026-04-25T22:25:28.093152","MEAN_MOTION":1.00272627,"ECCENTRICITY":0.00234011,"INCLINATION":29.0166,"RA_OF_ASC_NODE":241.3001,"ARG_OF_PERICENTER":182.1541,"MEAN_ANOMALY":181.7705,"EPHEMERIS_TYPE":0,"CLASSIFICATION_TYPE":"U","NORAD_CAT_ID":39635,"ELEMENT_SET_NO":999,"REV_AT_EPOCH":4427,"BSTAR":0,"MEAN_MOTION_DOT":7.5e-7,"MEAN_MOTION_DDOT":0},{"OBJECT_NAME":"CTS DEB [ARRAY COVER]","OBJECT_ID":"1976-004E","EPOCH":"2026-04-25T09:38:37.603968","MEAN_MOTION":1.00312222,"ECCENTRICITY":0.00491992,"INCLINATION":3.3662,"RA_OF_ASC_NODE":267.0448,"ARG_OF_PERICENTER":174.9395,"MEAN_ANOMALY":161.3791,"EPHEMERIS_TYPE":0,"CLASSIFICATION_TYPE":"U","NORAD_CAT_ID":39688,"ELEMENT_SET_NO":999,"REV_AT_EPOCH":4224,"BSTAR":0,"MEAN_MOTION_DOT":-5.0e-7,"MEAN_MOTION_DDOT":0},{"OBJECT_NAME":"CTS DEB [ARRAY COVER]","OBJECT_ID":"1976-004F","EPOCH":"2026-04-24T09:07:37.043040","MEAN_MOTION":1.00265195,"ECCENTRICITY":0.01520118,"INCLINATION":3.4019,"RA_OF_ASC_NODE":267.8548,"ARG_OF_PERICENTER":72.9408,"MEAN_ANOMALY":288.5221,"EPHEMERIS_TYPE":0,"CLASSIFICATION_TYPE":"U","NORAD_CAT_ID":39689,"ELEMENT_SET_NO":999,"REV_AT_EPOCH":6635,"BSTAR":0,"MEAN_MOTION_DOT":-3.04e-6,"MEAN_MOTION_DDOT":0},{"OBJECT_NAME":"LUCH-5V","OBJECT_ID":"2014-023A","EPOCH":"2026-04-25T22:36:56.992320","MEAN_MOTION":1.00272066,"ECCENTRICITY":0.00021901,"INCLINATION":5.0069,"RA_OF_ASC_NODE":70.2551,"ARG_OF_PERICENTER":337.828,"MEAN_ANOMALY":239.8689,"EPHEMERIS_TYPE":0,"CLASSIFICATION_TYPE":"U","NORAD_CAT_ID":39727,"ELEMENT_SET_NO":999,"REV_AT_EPOCH":4383,"BSTAR":0,"MEAN_MOTION_DOT":-2.79e-6,"MEAN_MOTION_DDOT":0},{"OBJECT_NAME":"KAZSAT-3","OBJECT_ID":"2014-023B","EPOCH":"2026-04-25T22:26:42.972576","MEAN_MOTION":1.00271622,"ECCENTRICITY":5.308e-5,"INCLINATION":0.017,"RA_OF_ASC_NODE":90.7245,"ARG_OF_PERICENTER":184.863,"MEAN_ANOMALY":333.5405,"EPHEMERIS_TYPE":0,"CLASSIFICATION_TYPE":"U","NORAD_CAT_ID":39728,"ELEMENT_SET_NO":999,"REV_AT_EPOCH":4193,"BSTAR":0,"MEAN_MOTION_DOT":0,"MEAN_MOTION_DDOT":0},{"OBJECT_NAME":"BREEZE-M R/B","OBJECT_ID":"2014-023C","EPOCH":"2026-04-24T19:46:46.839072","MEAN_MOTION":0.92543699,"ECCENTRICITY":0.06449123,"INCLINATION":9.989,"RA_OF_ASC_NODE":53.6455,"ARG_OF_PERICENTER":199.7002,"MEAN_ANOMALY":157.649,"EPHEMERIS_TYPE":0,"CLASSIFICATION_TYPE":"U","NORAD_CAT_ID":39729,"ELEMENT_SET_NO":999,"REV_AT_EPOCH":4048,"BSTAR":0,"MEAN_MOTION_DOT":-1.54e-6,"MEAN_MOTION_DDOT":0},{"OBJECT_NAME":"EUTELSAT 3B","OBJECT_ID":"2014-030A","EPOCH":"2026-04-25T22:10:51.992832","MEAN_MOTION":1.00272502,"ECCENTRICITY":0.00039828,"INCLINATION":0.07,"RA_OF_ASC_NODE":17.1287,"ARG_OF_PERICENTER":13.7461,"MEAN_ANOMALY":158.8684,"EPHEMERIS_TYPE":0,"CLASSIFICATION_TYPE":"U","NORAD_CAT_ID":39773,"ELEMENT_SET_NO":999,"REV_AT_EPOCH":4354,"BSTAR":0,"MEAN_MOTION_DOT":6.0e-8,"MEAN_MOTION_DDOT":0},{"OBJECT_NAME":"ASIASAT 8 (AMOS-7)","OBJECT_ID":"2014-046A","EPOCH":"2026-04-25T22:40:04.192608","MEAN_MOTION":1.00273971,"ECCENTRICITY":0.00014403,"INCLINATION":0.0441,"RA_OF_ASC_NODE":69.3025,"ARG_OF_PERICENTER":311.0012,"MEAN_ANOMALY":278.9589,"EPHEMERIS_TYPE":0,"CLASSIFICATION_TYPE":"U","NORAD_CAT_ID":40107,"ELEMENT_SET_NO":999,"REV_AT_EPOCH":10162,"BSTAR":0,"MEAN_MOTION_DOT":-3.46e-6,"MEAN_MOTION_DDOT":0},{"OBJECT_NAME":"ASIASAT 6","OBJECT_ID":"2014-052A","EPOCH":"2026-04-24T15:56:01.047264","MEAN_MOTION":1.00269605,"ECCENTRICITY":7.1e-5,"INCLINATION":0.0516,"RA_OF_ASC_NODE":73.2625,"ARG_OF_PERICENTER":302.6035,"MEAN_ANOMALY":195.7333,"EPHEMERIS_TYPE":0,"CLASSIFICATION_TYPE":"U","NORAD_CAT_ID":40141,"ELEMENT_SET_NO":999,"REV_AT_EPOCH":4254,"BSTAR":0,"MEAN_MOTION_DOT":-3.76e-6,"MEAN_MOTION_DDOT":0},{"OBJECT_NAME":"OPTUS 10","OBJECT_ID":"2014-054A","EPOCH":"2026-04-25T18:37:38.764704","MEAN_MOTION":1.00272243,"ECCENTRICITY":0.00018662,"INCLINATION":0.0487,"RA_OF_ASC_NODE":286.6048,"ARG_OF_PERICENTER":107.9693,"MEAN_ANOMALY":254.64,"EPHEMERIS_TYPE":0,"CLASSIFICATION_TYPE":"U","NORAD_CAT_ID":40146,"ELEMENT_SET_NO":999,"REV_AT_EPOCH":4250,"BSTAR":0,"MEAN_MOTION_DOT":-1.61e-6,"MEAN_MOTION_DDOT":0},{"OBJECT_NAME":"MEASAT-3B","OBJECT_ID":"2014-054B","EPOCH":"2026-04-25T23:09:52.117056","MEAN_MOTION":1.00272206,"ECCENTRICITY":0.0003314,"INCLINATION":0.0523,"RA_OF_ASC_NODE":59.8122,"ARG_OF_PERICENTER":337.6636,"MEAN_ANOMALY":255.4954,"EPHEMERIS_TYPE":0,"CLASSIFICATION_TYPE":"U","NORAD_CAT_ID":40147,"ELEMENT_SET_NO":999,"REV_AT_EPOCH":4238,"BSTAR":0,"MEAN_MOTION_DOT":-2.55e-6,"MEAN_MOTION_DDOT":0},{"OBJECT_NAME":"CZ-3B DEB","OBJECT_ID":"2010-042M","EPOCH":"2026-04-24T09:00:42.508800","MEAN_MOTION":1.89881108,"ECCENTRICITY":0.72411704,"INCLINATION":27.0966,"RA_OF_ASC_NODE":269.7433,"ARG_OF_PERICENTER":328.444,"MEAN_ANOMALY":288.2087,"EPHEMERIS_TYPE":0,"CLASSIFICATION_TYPE":"U","NORAD_CAT_ID":40160,"ELEMENT_SET_NO":999,"REV_AT_EPOCH":8619,"BSTAR":0,"MEAN_MOTION_DOT":-1.46e-6,"MEAN_MOTION_DDOT":0},{"OBJECT_NAME":"CZ-3B DEB","OBJECT_ID":"2010-042P","EPOCH":"2026-04-25T11:03:04.210560","MEAN_MOTION":1.92045543,"ECCENTRICITY":0.72067203,"INCLINATION":26.9249,"RA_OF_ASC_NODE":269.4182,"ARG_OF_PERICENTER":335.3407,"MEAN_ANOMALY":2.6324,"EPHEMERIS_TYPE":0,"CLASSIFICATION_TYPE":"U","NORAD_CAT_ID":40162,"ELEMENT_SET_NO":999,"REV_AT_EPOCH":8719,"BSTAR":0,"MEAN_MOTION_DOT":-1.67e-6,"MEAN_MOTION_DDOT":0},{"OBJECT_NAME":"CZ-3B DEB","OBJECT_ID":"2010-042Q","EPOCH":"2026-04-25T12:17:22.472160","MEAN_MOTION":1.92686164,"ECCENTRICITY":0.73566139,"INCLINATION":27.4113,"RA_OF_ASC_NODE":122.0145,"ARG_OF_PERICENTER":181.7455,"MEAN_ANOMALY":166.5609,"EPHEMERIS_TYPE":0,"CLASSIFICATION_TYPE":"U","NORAD_CAT_ID":40163,"ELEMENT_SET_NO":999,"REV_AT_EPOCH":8147,"BSTAR":0.0012058282,"MEAN_MOTION_DOT":4.9e-7,"MEAN_MOTION_DDOT":0},{"OBJECT_NAME":"CZ-3B DEB","OBJECT_ID":"2010-042R","EPOCH":"2026-04-21T21:50:39.735168","MEAN_MOTION":1.898658,"ECCENTRICITY":0.72864898,"INCLINATION":26.8586,"RA_OF_ASC_NODE":250.9783,"ARG_OF_PERICENTER":357.5572,"MEAN_ANOMALY":210.0424,"EPHEMERIS_TYPE":0,"CLASSIFICATION_TYPE":"U","NORAD_CAT_ID":40164,"ELEMENT_SET_NO":999,"REV_AT_EPOCH":8619,"BSTAR":0,"MEAN_MOTION_DOT":-4.9e-7,"MEAN_MOTION_DDOT":0},{"OBJECT_NAME":"CZ-3B DEB","OBJECT_ID":"2010-042S","EPOCH":"2026-04-24T05:34:36.825888","MEAN_MOTION":1.92966989,"ECCENTRICITY":0.7371412,"INCLINATION":27.5624,"RA_OF_ASC_NODE":126.9531,"ARG_OF_PERICENTER":163.3081,"MEAN_ANOMALY":288.2473,"EPHEMERIS_TYPE":0,"CLASSIFICATION_TYPE":"U","NORAD_CAT_ID":40165,"ELEMENT_SET_NO":999,"REV_AT_EPOCH":10282,"BSTAR":0.00085555,"MEAN_MOTION_DOT":7.0e-7,"MEAN_MOTION_DDOT":0},{"OBJECT_NAME":"CZ-3B DEB","OBJECT_ID":"2010-042W","EPOCH":"2026-04-23T16:51:20.841984","MEAN_MOTION":1.93998502,"ECCENTRICITY":0.72188333,"INCLINATION":26.2445,"RA_OF_ASC_NODE":250.5054,"ARG_OF_PERICENTER":14.5269,"MEAN_ANOMALY":1.9105,"EPHEMERIS_TYPE":0,"CLASSIFICATION_TYPE":"U","NORAD_CAT_ID":40169,"ELEMENT_SET_NO":999,"REV_AT_EPOCH":9674,"BSTAR":0,"MEAN_MOTION_DOT":3.7e-7,"MEAN_MOTION_DDOT":0}]
