IRNSS-1B                
1 39635U 14017A   26115.93435293  .00000075  00000+0  00000+0 0  9992
2 39635  29.0166 241.3001 0023401 182.1541 181.7705  1.00272627 44278
CTS DEB [ARRAY COVER]   
1 39688U 76004E   26115.40182412 -.00000050  00000+0  00000+0 0  9992
2 39688   3.3662 267.0448 0049199 174.9395 161.3791  1.00312222 42240
CTS DEB [ARRAY COVER]   
1 39689U 76004F   26114.38028985 -.00000304  00000+0  00000+0 0  9995
2 39689   3.4019 267.8548 0152011  72.9408 288.5221  1.00265195 66351
LUCH-5V                 
1 39727U 14023A   26115.94232630 -.00000279  00000+0  00000+0 0  9999
2 39727   5.0069  70.2551 0002190 337.8280 239.8689  1.00272066 43830
KAZSAT-3                
1 39728U 14023B   26115.93521959  .00000000  00000+0  00000+0 0  9995
2 39728   0.0170  90.7245 0000530 184.8630 333.5405  1.00271622 41935
BREEZE-M R/B            
1 39729U 14023C   26114.82415323 -.00000154  00000+0  00000+0 0  9991
2 39729   9.9890  53.6455 0644912 199.7002 157.6490  0.92543699 40484
EUTELSAT 3B             
1 39773U 14030A   26115.92421288  .00000006  00000+0  00000+0 0  9992
2 39773   0.0700  17.1287 0003982  13.7461 158.8684  1.00272502 43543
ASIASAT 8 (AMOS-7)      
1 40107U 14046A   26115.94449297 -.00000346  00000+0  00000+0 0  9992
2 40107   0.0441  69.3025 0001440 311.0012 278.9589  1.00273971101623
ASIASAT 6               
1 40141U 14052A   26114.66390101 -.00000376  00000+0  00000+0 0  9997
2 40141   0.0516  73.2625 0000710 302.6035 195.7333  1.00269605 42541
OPTUS 10                
1 40146U 14054A   26115.77614311 -.00000161  00000+0  00000+0 0  9991
2 40146   0.0487 286.6048 0001866 107.9693 254.6400  1.00272243 42509
MEASAT-3B               
1 40147U 14054B   26115.96518654 -.00000255  00000+0  00000+0 0  9990
2 40147   0.0523  59.8122 0003314 337.6636 255.4954  1.00272206 42381
CZ-3B DEB               
1 40160U 10042M   26114.37549200 -.00000146  00000+0  00000+0 0  9992
2 40160  27.0966 269.7433 7241170 328.4440 288.2087  1.89881108 86197
CZ-3B DEB               
1 40162U 10042P   26115.46046540 -.00000167  00000+0  00000+0 0  9997
2 40162  26.9249 269.4182 7206720 335.3407   2.6324  1.92045543 87193
CZ-3B DEB               
1 40163U 10042Q   26115.51206565  .00000049  00000+0  12058-2 0  9996
2 40163  27.4113 122.0145 7356613 181.7455 166.5609  1.92686164 81477
CZ-3B DEB               
1 40164U 10042R   26111.91018212 -.00000049  00000+0  00000+0 0  9999
2 40164  26.8586 250.9783 7286489 357.5572 210.0424  1.89865800 86196
CZ-3B DEB               
1 40165U 10042S   26114.23237067  .00000070  00000+0  85555-3 0  9994
2 40165  27.5624 126.9531 7371412 163.3081 288.2473  1.92966989102824
CZ-3B DEB               
1 40169U 10042W   26113.70232456  .00000037  00000+0  00000+0 0  9997
2 40169  26.2445 250.5054 7218833  14.5269   1.9105  1.93998502 96743
